
# Worst residual: 4.25 km
# MJD 59644.000000 (2022 Mar  6  0:00)
C7EW3F2
1 79991U 22999ZZR 22065.49919926  .00000000  00000-0  00000-0 0 15357
2 79991 034.8701 147.3196 8166083 265.5125 226.2328 00.24746507    09

# Worst residual: 9.43 km
# MJD 59645.000000 (2022 Mar  7  0:00)
C7EW3F2
1 79991U 22999ZZR 22066.49919926  .00000000  00000-0  00000-0 0 15358
2 79991 034.8641 147.2507 8169314 265.5402 315.4265 00.24732142    06

# Worst residual: 13.38 km
# MJD 59646.000000 (2022 Mar  8  0:00)
C7EW3F2
1 79991U 22999ZZR 22067.49919926  .00000000  00000-0  00000-0 0 15359
2 79991 034.8615 147.1081 8171472 265.6667 044.6110 00.24781367    08

# Worst residual: 4.73 km
# MJD 59647.000000 (2022 Mar  9  0:00)
C7EW3F2
1 79991U 22999ZZR 22068.49919926  .00000000  00000-0  00000-0 0 15350
2 79991 034.8585 146.9914 8174705 265.7709 133.7159 00.24757953    03

# Worst residual: 3.32 km
# MJD 59648.000000 (2022 Mar 10  0:00)
C7EW3F2
1 79991U 22999ZZR 22069.49919926  .00000000  00000-0  00000-0 0 15351
2 79991 034.8616 146.9468 8176511 265.8049 222.8198 00.24755226    01

# Worst residual: 17.82 km
# MJD 59649.000000 (2022 Mar 11  0:00)
C7EW3F2
1 79991U 22999ZZR 22070.49919926  .00000000  00000-0  00000-0 0 15353
2 79991 034.8604 146.8354 8177960 265.9080 311.8976 00.24779201    08

# Worst residual: 22.17 km
# MJD 59650.000000 (2022 Mar 12  0:00)
C7EW3F2
1 79991U 22999ZZR 22071.49919926  .00000000  00000-0  00000-0 0 15354
2 79991 034.8588 146.6815 8177955 265.9779 041.1864 00.24805956    04

# Worst residual: 4.13 km
# MJD 59651.000000 (2022 Mar 13  0:00)
C7EW3F2
1 79991U 22999ZZR 22072.49919926  .00000000  00000-0  00000-0 0 15355
2 79991 034.8553 146.5477 8182435 266.0990 130.3006 00.24769670    06

# Worst residual: 5.85 km
# MJD 59652.000000 (2022 Mar 14  0:00)
C7EW3F2
1 79991U 22999ZZR 22073.49919926  .00000000  00000-0  00000-0 0 15356
2 79991 034.8528 146.3923 8179563 266.2110 219.5180 00.24757483    08

# Worst residual: 3.87 km
# MJD 59653.000000 (2022 Mar 15  0:00)
C7EW3F2
1 79991U 22999ZZR 22074.49919926  .00000000  00000-0  00000-0 0 15357
2 79991 034.8532 146.2460 8177631 266.2833 308.7083 00.24741291    07

# Worst residual: 32.04 km
# MJD 59654.000000 (2022 Mar 16  0:00)
C7EW3F2
1 79991U 22999ZZR 22075.49919926  .00000000  00000-0  00000-0 0 15358
2 79991 034.8504 146.1112 8177588 266.3620 037.9221 00.24802817    02

# Worst residual: 2.89 km
# MJD 59655.000000 (2022 Mar 17  0:00)
C7EW3F2
1 79991U 22999ZZR 22076.49919926  .00000000  00000-0  00000-0 0 15359
2 79991 034.8468 145.9635 8189687 266.4412 126.9932 00.24772795    00

# Worst residual: 9.74 km
# MJD 59656.000000 (2022 Mar 18  0:00)
C7EW3F2
1 79991U 22999ZZR 22077.49919926  .00000000  00000-0  00000-0 0 15350
2 79991 034.8468 145.8692 8189662 266.4804 216.3519 00.24767410    03

# Worst residual: 17.44 km
# MJD 59657.000000 (2022 Mar 19  0:00)
C7EW3F2
1 79991U 22999ZZR 22078.49919926  .00000000  00000-0  00000-0 0 15351
2 79991 034.8363 145.8184 8190647 266.4297 305.7840 00.24713949    02

# Worst residual: 17.29 km
# MJD 59658.000000 (2022 Mar 20  0:00)
C7EW3F2
1 79991U 22999ZZR 22079.49919926  .00000000  00000-0  00000-0 0 15352
2 79991 034.8258 145.6753 8193664 266.5826 034.9276 00.24781019    03

# Worst residual: 5.15 km
# MJD 59659.000000 (2022 Mar 21  0:00)
C7EW3F2
1 79991U 22999ZZR 22080.49919926  .00000000  00000-0  00000-0 0 15354
2 79991 034.7800 145.3825 8198224 266.8091 124.0668 00.24763320    07

# Worst residual: 3.48 km
# MJD 59660.000000 (2022 Mar 22  0:00)
C7EW3F2
1 79991U 22999ZZR 22081.49919926  .00000000  00000-0  00000-0 0 15355
2 79991 034.7755 145.2067 8199090 266.9293 213.3272 00.24760364    08

# Worst residual: 10.89 km
# MJD 59661.000000 (2022 Mar 23  0:00)
C7EW3F2
1 79991U 22999ZZR 22082.49919926  .00000000  00000-0  00000-0 0 15356
2 79991 034.7786 145.0693 8202819 267.0334 302.5286 00.24766093    08

# Worst residual: 19.85 km
# MJD 59662.000000 (2022 Mar 24  0:00)
C7EW3F2
1 79991U 22999ZZR 22083.49919926  .00000000  00000-0  00000-0 0 15357
2 79991 034.7924 144.9014 8202166 267.1233 031.7659 00.24797772    04

# Worst residual: 6.55 km
# MJD 59663.000000 (2022 Mar 25  0:00)
C7EW3F2
1 79991U 22999ZZR 22084.49919926  .00000000  00000-0  00000-0 0 15358
2 79991 034.8045 144.8274 8209908 267.1690 120.8605 00.24764647    00

# Worst residual: 3.47 km
# MJD 59664.000000 (2022 Mar 26  0:00)
C7EW3F2
1 79991U 22999ZZR 22085.49919926  .00000000  00000-0  00000-0 0 15359
2 79991 034.8144 144.8405 8215865 267.1438 210.0466 00.24769906    05

# Worst residual: 6.50 km
# MJD 59665.000000 (2022 Mar 27  0:00)
C7EW3F2
1 79991U 22999ZZR 22086.49919926  .00000000  00000-0  00000-0 0 15350
2 79991 034.8113 144.7576 8219792 267.2070 299.2627 00.24777388    06

# Worst residual: 32.03 km
# MJD 59666.000000 (2022 Mar 28  0:00)
C7EW3F2
1 79991U 22999ZZR 22087.49919926  .00000000  00000-0  00000-0 0 15351
2 79991 034.8131 144.6224 8218028 267.2710 028.5583 00.24828669    00

# Worst residual: 8.40 km
# MJD 59667.000000 (2022 Mar 29  0:00)
C7EW3F2
1 79991U 22999ZZR 22088.49919926  .00000000  00000-0  00000-0 0 15352
2 79991 034.8074 144.4635 8228392 267.4001 117.5432 00.24759889    09

# Worst residual: 4.66 km
# MJD 59668.000000 (2022 Mar 30  0:00)
C7EW3F2
1 79991U 22999ZZR 22089.49919926  .00000000  00000-0  00000-0 0 15353
2 79991 034.8098 144.3609 8227520 267.4929 206.5925 00.24746417    05

# Worst residual: 15.85 km
# MJD 59669.000000 (2022 Mar 31  0:00)
C7EW3F2
1 79991U 22999ZZR 22090.49919926  .00000000  00000-0  00000-0 0 15355
2 79991 034.8036 144.2991 8228724 267.4878 295.8587 00.24718135    01

# Worst residual: 17.31 km
# MJD 59670.000000 (2022 Apr  1  0:00)
C7EW3F2
1 79991U 22999ZZR 22091.49919926  .00000000  00000-0  00000-0 0 15356
2 79991 034.8075 144.1613 8233562 267.6547 024.9910 00.24773081    07

# Worst residual: 6.26 km
# MJD 59671.000000 (2022 Apr  2  0:00)
C7EW3F2
1 79991U 22999ZZR 22092.49919926  .00000000  00000-0  00000-0 0 15357
2 79991 034.7951 143.9995 8237604 267.7713 114.1290 00.24759699    08

# Worst residual: 5.08 km
# MJD 59672.000000 (2022 Apr  3  0:00)
C7EW3F2
1 79991U 22999ZZR 22093.49919926  .00000000  00000-0  00000-0 0 15358
2 79991 034.8044 143.9968 8236699 267.7808 203.1964 00.24747482    04

# Worst residual: 3.32 km
# MJD 59673.000000 (2022 Apr  4  0:00)
C7EW3F2
1 79991U 22999ZZR 22094.49919926  .00000000  00000-0  00000-0 0 15359
2 79991 034.7968 143.9794 8238442 267.7734 292.3516 00.24742405    04

# Worst residual: 8.34 km
# MJD 59674.000000 (2022 Apr  5  0:00)
C7EW3F2
1 79991U 22999ZZR 22095.49919926  .00000000  00000-0  00000-0 0 15350
2 79991 034.8098 143.8231 8241217 267.9114 021.5127 00.24770635    08

# Worst residual: 3.50 km
# MJD 59675.000000 (2022 Apr  6  0:00)
C7EW3F2
1 79991U 22999ZZR 22096.49919926  .00000000  00000-0  00000-0 0 15351
2 79991 034.7931 143.6510 8243802 268.0468 110.6808 00.24760070    05
